{
  "type": "FeatureCollection",
  "features": [
    {
      "type": "Feature",
      "properties": {
        "norad_id": 37836,
        "name": "EUTELSAT 16A",
        "group": "eutelsat",
        "lat": -0.07697639572719511,
        "lon": -82.06287967432074,
        "alt_km": 35762.01573257901,
        "timestamp": "2025-12-20T11:30:28.042285+00:00",
        "meta_object_name": "EUTELSAT 16A",
        "meta_object_id": "2011-057A",
        "meta_epoch": "2025-12-20T02:35:38.427360",
        "meta_mean_motion": 1.00269232,
        "meta_eccentricity": 0.0005901,
        "meta_inclination": 0.0602,
        "meta_ra_of_asc_node": 336.8823,
        "meta_arg_of_pericenter": 292.7838,
        "meta_mean_anomaly": 234.2016,
        "meta_ephemeris_type": 0,
        "meta_classification_type": "U",
        "meta_norad_cat_id": 37836,
        "meta_element_set_no": 999,
        "meta_rev_at_epoch": 553,
        "meta_bstar": 0,
        "meta_mean_motion_dot": 1.28e-06,
        "meta_mean_motion_ddot": 0,
        "tle_line1": "1 37836U 11057A   25354.10808365  .00000128  00000+0  00000+0 0  9990",
        "tle_line2": "2 37836   0.0602 336.8823 0005901 292.7838 234.2016  1.00269232  5530"
      },
      "geometry": {
        "type": "Point",
        "coordinates": [
          -82.06287967432074,
          -0.07697639572719511
        ]
      }
    },
    {
      "type": "Feature",
      "properties": {
        "norad_id": 38992,
        "name": "EUTELSAT 21B",
        "group": "eutelsat",
        "lat": -0.08216885017753255,
        "lon": -76.4697942044215,
        "alt_km": 35773.22770295521,
        "timestamp": "2025-12-20T11:30:28.042297+00:00",
        "meta_object_name": "EUTELSAT 21B",
        "meta_object_id": "2012-062B",
        "meta_epoch": "2025-12-20T02:27:38.705184",
        "meta_mean_motion": 1.00268835,
        "meta_eccentricity": 0.0003286,
        "meta_inclination": 0.0694,
        "meta_ra_of_asc_node": 339.1194,
        "meta_arg_of_pericenter": 292.9283,
        "meta_mean_anomaly": 235.4116,
        "meta_ephemeris_type": 0,
        "meta_classification_type": "U",
        "meta_norad_cat_id": 38992,
        "meta_element_set_no": 999,
        "meta_rev_at_epoch": 4803,
        "meta_bstar": 0,
        "meta_mean_motion_dot": 1.54e-06,
        "meta_mean_motion_ddot": 0,
        "tle_line1": "1 38992U 12062B   25354.10253131  .00000154  00000+0  00000+0 0  9995",
        "tle_line2": "2 38992   0.0694 339.1194 0003286 292.9283 235.4116  1.00268835 48036"
      },
      "geometry": {
        "type": "Point",
        "coordinates": [
          -76.4697942044215,
          -0.08216885017753255
        ]
      }
    },
    {
      "type": "Feature",
      "properties": {
        "norad_id": 39020,
        "name": "EUTELSAT 70B",
        "group": "eutelsat",
        "lat": -0.043692531950604165,
        "lon": -27.541129026189243,
        "alt_km": 35782.67346867204,
        "timestamp": "2025-12-20T11:30:28.042309+00:00",
        "meta_object_name": "EUTELSAT 70B",
        "meta_object_id": "2012-069A",
        "meta_epoch": "2025-12-20T03:17:35.713824",
        "meta_mean_motion": 1.00271421,
        "meta_eccentricity": 0.0004285,
        "meta_inclination": 0.0612,
        "meta_ra_of_asc_node": 3.8871,
        "meta_arg_of_pericenter": 249.5401,
        "meta_mean_anomaly": 315.4379,
        "meta_ephemeris_type": 0,
        "meta_classification_type": "U",
        "meta_norad_cat_id": 39020,
        "meta_element_set_no": 999,
        "meta_rev_at_epoch": 4771,
        "meta_bstar": 0,
        "meta_mean_motion_dot": -1.9e-07,
        "meta_mean_motion_ddot": 0,
        "tle_line1": "1 39020U 12069A   25354.13721891 -.00000019  00000+0  00000+0 0  9992",
        "tle_line2": "2 39020   0.0612   3.8871 0004285 249.5401 315.4379  1.00271421 47715"
      },
      "geometry": {
        "type": "Point",
        "coordinates": [
          -27.541129026189243,
          -0.043692531950604165
        ]
      }
    },
    {
      "type": "Feature",
      "properties": {
        "norad_id": 39122,
        "name": "EUTELSAT 117 WEST A",
        "group": "eutelsat",
        "lat": -0.003719480639905785,
        "lon": 145.11576607945062,
        "alt_km": 35792.73860953964,
        "timestamp": "2025-12-20T11:30:28.042321+00:00",
        "meta_object_name": "EUTELSAT 117 WEST A",
        "meta_object_id": "2013-012A",
        "meta_epoch": "2025-12-19T12:21:38.812320",
        "meta_mean_motion": 1.00274631,
        "meta_eccentricity": 0.0002807,
        "meta_inclination": 0.032,
        "meta_ra_of_asc_node": 299.7491,
        "meta_arg_of_pericenter": 334.4616,
        "meta_mean_anomaly": 242.7738,
        "meta_ephemeris_type": 0,
        "meta_classification_type": "U",
        "meta_norad_cat_id": 39122,
        "meta_element_set_no": 999,
        "meta_rev_at_epoch": 4663,
        "meta_bstar": 0,
        "meta_mean_motion_dot": 1.1e-07,
        "meta_mean_motion_ddot": 0,
        "tle_line1": "1 39122U 13012A   25353.51503255  .00000011  00000+0  00000+0 0  9998",
        "tle_line2": "2 39122   0.0320 299.7491 0002807 334.4616 242.7738  1.00274631 46635"
      },
      "geometry": {
        "type": "Point",
        "coordinates": [
          145.11576607945062,
          -0.003719480639905785
        ]
      }
    },
    {
      "type": "Feature",
      "properties": {
        "norad_id": 39163,
        "name": "EUTELSAT 7B",
        "group": "eutelsat",
        "lat": -0.0925940476084897,
        "lon": -91.12235666782192,
        "alt_km": 35775.39933116992,
        "timestamp": "2025-12-20T11:30:28.042333+00:00",
        "meta_object_name": "EUTELSAT 7B",
        "meta_object_id": "2013-022A",
        "meta_epoch": "2025-12-20T02:43:38.882208",
        "meta_mean_motion": 1.00270607,
        "meta_eccentricity": 0.0004339,
        "meta_inclination": 0.065,
        "meta_ra_of_asc_node": 358.4765,
        "meta_arg_of_pericenter": 323.6607,
        "meta_mean_anomaly": 174.726,
        "meta_ephemeris_type": 0,
        "meta_classification_type": "U",
        "meta_norad_cat_id": 39163,
        "meta_element_set_no": 999,
        "meta_rev_at_epoch": 4615,
        "meta_bstar": 0,
        "meta_mean_motion_dot": 7.2e-07,
        "meta_mean_motion_ddot": 0,
        "tle_line1": "1 39163U 13022A   25354.11364447  .00000072  00000+0  00000+0 0  9996",
        "tle_line2": "2 39163   0.0650 358.4765 0004339 323.6607 174.7260  1.00270607 46155"
      },
      "geometry": {
        "type": "Point",
        "coordinates": [
          -91.12235666782192,
          -0.0925940476084897
        ]
      }
    },
    {
      "type": "Feature",
      "properties": {
        "norad_id": 39612,
        "name": "EXPRESS-AT1",
        "group": "eutelsat",
        "lat": -0.03372482864031405,
        "lon": -42.10206020851323,
        "alt_km": 35787.79270944073,
        "timestamp": "2025-12-20T11:30:28.042345+00:00",
        "meta_object_name": "EXPRESS-AT1",
        "meta_object_id": "2014-010A",
        "meta_epoch": "2025-12-19T13:31:46.041312",
        "meta_mean_motion": 1.00270605,
        "meta_eccentricity": 4.94e-05,
        "meta_inclination": 0.022,
        "meta_ra_of_asc_node": 3.3546,
        "meta_arg_of_pericenter": 88.7338,
        "meta_mean_anomaly": 255.2488,
        "meta_ephemeris_type": 0,
        "meta_classification_type": "U",
        "meta_norad_cat_id": 39612,
        "meta_element_set_no": 999,
        "meta_rev_at_epoch": 4301,
        "meta_bstar": 0,
        "meta_mean_motion_dot": 0,
        "meta_mean_motion_ddot": 0,
        "tle_line1": "1 39612U 14010A   25353.56372733  .00000000  00000+0  00000+0 0  9999",
        "tle_line2": "2 39612   0.0220   3.3546 0000494  88.7338 255.2488  1.00270605 43015"
      },
      "geometry": {
        "type": "Point",
        "coordinates": [
          -42.10206020851323,
          -0.03372482864031405
        ]
      }
    },
    {
      "type": "Feature",
      "properties": {
        "norad_id": 39613,
        "name": "EXPRESS-AT2",
        "group": "eutelsat",
        "lat": 0.036492228994666996,
        "lon": 41.78693290005959,
        "alt_km": 35787.79695512877,
        "timestamp": "2025-12-20T11:30:28.042367+00:00",
        "meta_object_name": "EXPRESS-AT2",
        "meta_object_id": "2014-010B",
        "meta_epoch": "2025-12-20T03:37:11.337888",
        "meta_mean_motion": 1.00271425,
        "meta_eccentricity": 0.000102,
        "meta_inclination": 0.0174,
        "meta_ra_of_asc_node": 322.4069,
        "meta_arg_of_pericenter": 328.113,
        "meta_mean_anomaly": 352.6228,
        "meta_ephemeris_type": 0,
        "meta_classification_type": "U",
        "meta_norad_cat_id": 39613,
        "meta_element_set_no": 999,
        "meta_rev_at_epoch": 4270,
        "meta_bstar": 0,
        "meta_mean_motion_dot": -2.57e-06,
        "meta_mean_motion_ddot": 0,
        "tle_line1": "1 39613U 14010B   25354.15082567 -.00000257  00000+0  00000+0 0  9994",
        "tle_line2": "2 39613   0.0174 322.4069 0001020 328.1130 352.6228  1.00271425 42706"
      },
      "geometry": {
        "type": "Point",
        "coordinates": [
          41.78693290005959,
          0.036492228994666996
        ]
      }
    }
  ]
}